0 SL-12 R/B(2)
1 11941U 78073F   13283.46915637 -.00000194  00000-0  10000-3 0  8403
2 11941 015.1698 338.1367 0014787 062.7135 297.4434 00.97570068118106
0 SL-12 R/B(2)
1 11941U 78073F   13283.46918439  .00000000  00000-0  10000-3 0  8412
2 11941 015.1700 338.1361 0014652 061.0013 299.1555 00.97565626118109
0 SL-12 R/B(2)
1 11941U 78073F   13285.51889614 -.00000169  00000-0  10000-3 0  8419
2 11941 015.1686 338.1161 0014690 062.2264 297.9249 00.97569384118126
0 SL-12 R/B(2)
1 11941U 78073F   13287.56864749 -.00000123  00000-0  10000-3 0  8429
2 11941 015.1673 338.0954 0014549 062.8479 297.2965 00.97568409118145
0 SL-12 R/B(2)
1 11941U 78073F   13289.61840938 -.00000081  00000-0  10000-3 0  8435
2 11941 015.1660 338.0748 0014558 062.6053 297.5319 00.97567647118169
0 SL-12 R/B(2)
1 11941U 78073F   13289.61842115  .00000000  00000-0  10000-3 0  8445
2 11941 015.1661 338.0746 0014678 060.9544 299.1859 00.97563332118161
0 SL-12 R/B(2)
1 11941U 78073F   13292.69308170 -.00000070  00000-0  10000-3 0  8443
2 11941 015.1641 338.0438 0014488 062.3096 297.8194 00.97567635118194
0 SL-12 R/B(2)
1 11941U 78073F   13294.74286540 -.00000100  00000-0  10000-3 0  8452
2 11941 015.1629 338.0232 0014442 062.3270 297.8025 00.97568353118210
